[{"OBJECT_NAME":"STARLINK-31455","OBJECT_ID":"2024-056P","EPOCH":"2026-03-09T12:13:45.362784","MEAN_MOTION":15.27582857,"ECCENTRICITY":0.0001321,"INCLINATION":43.002,"RA_OF_ASC_NODE":228.5385,"ARG_OF_PERICENTER":268.2545,"MEAN_ANOMALY":91.8155,"EPHEMERIS_TYPE":0,"CLASSIFICATION_TYPE":"U","NORAD_CAT_ID":59309,"ELEMENT_SET_NO":999,"REV_AT_EPOCH":11116,"BSTAR":7.1857752e-5,"MEAN_MOTION_DOT":1.716e-5,"MEAN_MOTION_DDOT":0},{"OBJECT_NAME":"CZ-6A R\/B","OBJECT_ID":"2023-168B","EPOCH":"2026-03-09T21:13:08.722272","MEAN_MOTION":15.16100791,"ECCENTRICITY":0.00607667,"INCLINATION":97.7542,"RA_OF_ASC_NODE":104.7688,"ARG_OF_PERICENTER":339.2379,"MEAN_ANOMALY":20.6386,"EPHEMERIS_TYPE":0,"CLASSIFICATION_TYPE":"U","NORAD_CAT_ID":58200,"ELEMENT_SET_NO":999,"REV_AT_EPOCH":12979,"BSTAR":0.00029693841,"MEAN_MOTION_DOT":5.919e-5,"MEAN_MOTION_DDOT":0}]
